LANDSAT 4               
1 13367U 82072A   09161.44494434  .00000951  00000-0  77122-4 0  1341
2 13367  98.1836  76.0336 0018627 358.1190   1.9958 15.02204492443500
TDRS 1                  
1 13969U 83026B   09161.11219505 -.00000298  00000-0  10000-3 0  8766
2 13969  13.3345   9.3267 0022345 232.9544   7.8859  1.00276267 68924
LANDSAT 5               
1 14780U 84021A   09162.21885147  .00000037  00000-0  18454-4 0  7476
2 14780  98.2438 229.8233 0003675 120.3995 239.7567 14.57091361344518
ERBS                    
1 15354U 84108B   09162.15930930 -.00000209  00000-0  47008-5 0  1221
2 15354  56.9866 180.1898 0022554  67.3169 293.0247 15.15782230351140
TDRS 3                  
1 19548U 88091B   09160.62660542 -.00000193  00000-0  10000-3 0  2722
2 19548  11.8268  39.9948 0023512 322.2989 206.2630  1.00273940 63065
TDRS 4                  
1 19883U 89021B   09160.22096060 -.00000282  00000-0  10000-3 0  5959
2 19883  10.4884  51.9153 0002061 357.6622 241.4505  1.00262734246637
HST                     
1 20580U 90037B   09160.06658467  .00000323  00000-0  11921-4 0  4050
2 20580  28.4688 155.2994 0003513 195.7953 164.2587 15.00807884848632
TDRS 5                  
1 21639U 91054B   09158.81988894  .00000104  00000-0  10000-3 0  4587
2 21639   9.8379  55.7307 0010388 335.6600 352.4294  1.00277430 65362
UARS                    
1 21701U 91063B   09161.89047321  .00004199  00000-0  60003-4 0  6871
2 21701  56.9730  32.1212 0079194 156.5347 203.9359 15.55254831978245
TOPEX/POSEIDON          
1 22076U 92052A   09160.90771138 -.00000038  00000-0  10000-3 0  3762
2 22076  66.0315  85.8312 0007814 263.8389  96.1736 12.80947503787313
TDRS 6                  
1 22314U 93003B   09161.28075137  .00000094  00000-0  10000-3 0  4843
2 22314   9.1941  58.7619 0008055 348.5896 141.1156  1.00268938 60119
TDRS 7                  
1 23613U 95035B   09160.27185644  .00000032  00000-0  10000-3 0  5322
2 23613  11.0206  48.2911 0004262  26.0202 118.6164  0.99588535 50912
RXTE (XTE)              
1 23757U 95074A   09161.86106736  .00001037  00000-0  20898-4 0  8859
2 23757  22.9819  80.4073 0008214 265.4756  94.4775 15.27253935744800
TRMM                    
1 25063U 97074A   09161.05612386  .00002963  00000-0  41685-4 0   833
2 25063  34.9668  25.6596 0001109 291.4740  68.5855 15.56166319658981
KIKU-7 (ETS-VII)        
1 25064U 97074B   09161.20109409  .00000544  00000-0  22563-4 0  8226
2 25064  34.9579  76.0700 0001743 275.7303  84.3213 15.25165867639946
ISS (ZARYA)             
1 25544U 98067A   09161.51089941  .00015706  00000-0  11388-3 0   112
2 25544  51.6406 341.1646 0009228  98.8703 312.6668 15.73580432604904
LANDSAT 7               
1 25682U 99020A   09162.11735981  .00000064  00000-0  24286-4 0  8351
2 25682  98.2086 230.2245 0000701 103.5565 256.5716 14.57113638540199
FUSE 1                  
1 25791U 99035A   09161.93184916  .00000171  00000-0 -27231-5 0  4544
2 25791  24.9861   6.2664 0010688 207.1178 152.8756 14.41794697525490
TERRA                   
1 25994U 99068A   09162.13656743  .00000109  00000-0  34252-4 0  7611
2 25994  98.2023 237.2241 0001598  83.7165 276.4219 14.57124571504275
TDRS 8                  
1 26388U 00034A   09161.70248234 -.00000211  00000-0  10000-3 0  9721
2 26388   1.3852 109.2987 0005274 330.1807 161.5706  1.00265751 32866
EO-1                    
1 26619U 00075A   09162.14330652  .00000848  00000-0  17842-3 0  1322
2 26619  98.1459 229.6142 0009145 333.0388  27.0397 14.62023583455382
TIMED                   
1 26998U 01055B   09161.12774525  .00000018  00000-0  64632-5 0  3130
2 26998  74.0734   3.9803 0000945 121.9014 238.2288 14.84075689406476
TDRS 9                  
1 27389U 02011A   09159.32668899 -.00000270  00000-0  10000-3 0  3974
2 27389   2.3669 232.8226 0009140 170.0610 269.0778  1.00282160 28099
AQUA                    
1 27424U 02022A   09161.19727717  .00000107  00000-0  33629-4 0  3251
2 27424  98.1790 103.6303 0001377 108.5560 251.5799 14.57127184377740
TDRS 10                 
1 27566U 02055A   09162.00094119 -.00000256  00000-0  00000+0 0  1120
2 27566   1.1110 281.4795 0003719 164.8717 132.6932  1.00272352 23948
SORCE                   
1 27651U 03004A   09161.87006735  .00000040  00000-0  20745-4 0  9234
2 27651  39.9979 348.4396 0027977 300.6407  59.1640 14.82183803345351
GALEX                   
1 27783U 03017A   09161.44204828  .00000170  00000-0  13490-4 0  6869
2 27783  28.9993 300.1104 0003597  24.7106 335.3633 14.59749904326797
GP-B                    
1 28230U 04014A   09161.05162932  .00000115  00000-0  14519-4 0  5277
2 28230  89.9392 158.0062 0002994  99.5792 260.5768 14.75974796276721
AURA                    
1 28376U 04026A   09160.31006958 -.00000045  00000-0  76813-7 0  5219
2 28376  98.1758 104.9043 0001355 102.4628 257.6737 14.57123056260665
SWIFT                   
1 28485U 04047A   09161.53047041  .00000466  00000-0  58262-5 0  3160
2 28485  20.5609 246.4070 0014135 330.1859  29.7834 14.92546129248670
THEMIS A                
1 30580U 07004A   09160.79166667 -.00000143  00000-0  10000-3 0  4405
2 30580   9.2522 248.5585 7885162 112.0682 349.2529  0.87653167  8131
THEMIS B                
1 30581U 07004B   09158.58333333 -.00001154  00000-0  00000-0 0  2560
2 30581  11.2774   5.1257 9153951 321.7961 356.8746  0.24793694  6035
THEMIS C                
1 30582U 07004C   09160.66666667 -.00000392  00000-0  00000-0 0  4129
2 30582   8.9904 344.0655 8590479 353.0740 354.5087  0.49393891  4913
THEMIS D                
1 30797U 07004D   09161.54166667 -.00000115  00000-0  00000+0 0  5808
2 30797   4.1156 247.3238 7492285 113.3310 346.5810  1.00267180  7686
THEMIS E                
1 30798U 07004E   09161.58333333 -.00000128  00000-0  00000+0 0  6006
2 30798   4.6472 246.7638 7490082 113.8840 347.0354  1.00270564  7821
C/NOFS                  
1 32765U 08017A   09162.18837132  .00002815  00000-0  96338-4 0  3140
2 32765  13.0029 137.6687 0315860 359.5188   0.4720 14.81364077 62428
AIM                     
1 31304U 07015A   09161.25351703  .00000615  00000-0  66020-4 0  7243
2 31304  97.8019 261.9717 0010609 240.4039 119.6105 14.92135943115762
FGRST (GLAST)           
1 33053U 08029A   09162.02532227  .00000278  00000-0  00000+0 0  2623
2 33053  25.5833  28.3248 0014356  69.8788 290.3296 15.04935353 54956
